#dP2023  9 25  0  0  0.00000000      96 __u+U ITR00 EXT  IAC
## 2281  86400.00000000   900.00000000 60212 0.0000000000000
+  120   C06C07C08C09C10C11C12C13C14C16C19C20C21C22C23C24C25
+        C26C27C28C29C30C32C33C34C35C36C37C38C39C40C41C42C43
+        C44C45C46E02E03E04E05E07E08E09E10E11E12E13E14E15E18
+        E19E21E24E25E26E27E30E31E33E34E36G01G02G03G04G05G06
+        G07G08G09G10G11G12G13G14G15G16G17G18G19G20G21G22G23
+        G24G25G26G27G28G29G30G31G32J02J03J04R01R02R03R04R05
+        R07R08R09R11R12R13R14R15R16R17R18R19R20R21R22R24R25
+        R26  0  0  0  0  0  0  0  0  0  0  0  0  0  0  0  0
++        10  9 10  9  8 10  8 11  7  9  7  7  8  9  8  8  8
++         7  6  8  9  9  9  7  8  9  8  8  9 10  7  7  7  7
++        10  9  7  8  8  8  6  8  7  8  8  8  8  7  7  6  8
++         7  7  7  7  7  9  7  7  7  7  7  7  7  7  6  7  7
++         7  6  8  7  8  8  7  8  8  7  8  7  7  7  8  7  7
++         8  7  7  7  8  7  6  8  8  7  8 10  9  9  8  7  8
++         9  8  7  7  8  8  7  9  9  9  7  8 11  7  8  7  8
++         8  0  0  0  0  0  0  0  0  0  0  0  0  0  0  0  0
%c M  cc GPS ccc cccc cccc cccc cccc ccccc ccccc ccccc ccccc
%c cc cc ccc ccc cccc cccc cccc cccc ccccc ccccc ccccc ccccc
%f  0.0000000  0.000000000  0.00000000000  0.000000000000000
%f  0.0000000  0.000000000  0.00000000000  0.000000000000000
%i    0    0    0    0      0      0      0      0         0
%i    0    0    0    0      0      0      0      0         0
/* IAC                                ULTRA-RAPID PREDICTION
/* S/V CLOCKS ARE ALIGNED TO GNSS TIME                      
/* G:C1WC2W R:C1PC2P E:C1XC5X C:C2IC6I J:C1CC2S             
/* PCV:IGS20_2280 OL/AL:FES2004  NONE     YN ORB:CoN CLK:CoN
*  2023 09 25 12 45  0.00000000
PC06 -16289.521830  28017.885915  26852.318367     29.943433
PC07  -8466.232653  40001.317840  10812.948850    -59.517964
PC08  -1650.447444  22733.862321 -35449.558196    328.540542
PC09  -8835.288986  27138.622785  31272.848756    121.879245
PC10  -2625.848498  42192.496699   4371.451985   -190.067281
PC11  12203.183292   9856.645877 -23006.209685    170.818622
PC12  -6277.834612  20162.638786 -18210.680699    923.498948
PC13   4710.928048  26354.582856 -32343.478460    357.583294
PC14  12925.541190  20495.760539  13893.974602    470.000729
PC16 -21500.117882  27420.521999  23762.339895    -96.302462
PC19 -15636.600423 -11416.388075 -20077.017092   -970.588316
PC20  -8980.478670 -25424.211945  -7140.228357    255.430261
PC21  -3751.262261  25253.728335 -11284.560022   -970.566837
PC22 -13691.867776   9964.106031 -22196.989300   -292.734899
PC23  23548.784116  -2406.967412 -14765.654609   -861.649753
PC24  12671.148600  18040.981035  17084.210507    429.030439
PC25  26069.396951   9887.748404    837.258153    218.947601
PC26  -6357.174720  15018.596362  22630.793843   -182.703079
PC27  13685.927237 -21309.028146  11707.152279    204.307920
PC28  23276.484154 -14811.464624  -4157.129937    153.442834
PC29 -19624.061858  -1376.256180  19791.782553    179.252154
PC30  -3819.257610 -16909.815491  21865.481958     -5.463476
PC32   3650.206044 -25204.808726  11403.881062   -528.232807
PC33  15720.741676  11461.698871  20004.612183   -964.010667
PC34   5262.107509  16057.398351 -22215.926895    267.218643
PC35 -22723.920206  15614.982927   4196.156213    538.973414
PC36 -25607.479236 -10985.716485  -1608.168415   -209.348225
PC37   7525.205874 -14528.376659 -22590.911205   -836.105752
PC38 -10784.822948  20153.773238 -35400.322270    107.060962
PC39 -25144.305574  27963.599907  18861.809887     -4.947096
PC40 -13581.426971  37481.307645  14158.029272    -37.786725
PC41  13970.394087  -9180.048874  22387.908202   -876.148340
PC42   8236.037738  26054.417560   5756.081479   -537.945907
PC43  19187.838813   2294.352221 -20145.104755     41.257606
PC44 -12939.898249  21862.218345 -11532.360779    242.249389
PC45 -23242.177205   2701.383791  15228.192282    -29.374691
PC46 -13941.047490 -17854.926060 -16324.077292    -86.977001
PE02 -17426.425929   3716.847257  23641.632112     65.430285
PE03 -19195.775675  15603.806664 -16271.254820    -59.269020
PE04  11044.681936 -27440.144681  -1119.203611   -219.981603
PE05 -16186.832120  -5320.928950 -24207.428847     21.619911
PE07   3395.902469  23444.707263  17752.263801    -77.424474
PE08 -11330.586616  27343.993128    645.556059   -151.691152
PE09  -3227.615356 -23474.869082 -17736.355833   -168.886392
PE10   1416.783506 -16166.207100  24746.198151   -566.375449
PE11 -10831.889638 -14132.319385  23634.268835   2990.733118
PE12  12300.508977 -15656.121703  21900.799787   -711.477278
PE13  10036.600819  14279.370408 -23904.005885    -19.726096
PE14   2920.347828  26880.582110 -17860.203454    350.473960
PE15 -12753.907036  15528.148742 -21732.084350    -56.063026
PE18  -6590.436656 -16206.551037  16063.463845    571.603413
PE19  19420.150375 -13163.695919  18051.417575  -1557.864934
PE21  22067.619235  14643.212128 -13212.786298   -554.669998
PE24 -13632.174427 -25611.675572  -5929.010771   -340.865372
PE25 -22047.127766 -14944.271481  12929.740001     -2.319041
PE26  26964.985702   4359.853952 -11386.075313    232.777313
PE27  14110.244002  25450.004999   5401.173403   -158.741617
PE30  -2521.900103  20915.081846  20784.970774   -528.538297
PE31   2044.195008 -21148.185450 -20598.219131     -5.944487
PE33  27974.623649  -7317.509769   6288.689824     -0.192402
PE34 -27741.986349   7730.946939  -6889.158327    -68.937521
PE36 -26623.695601  -4696.472311  12059.160793   -121.116576
PG01   7365.676206  13785.795850 -21870.098888    164.730632
PG02   -248.823642  15018.929848 -21391.555374   -549.779111
PG03  11748.592358  23179.248371  -5906.782679   -115.791059
PG04   2831.233684  20430.504638  16671.503700    166.240408
PG05   -268.353255 -19764.628189  17511.702084   -144.068591
PG06  25386.506495  -5869.003986   5468.155454    543.663615
PG07  22585.985493   7092.302848  12983.888565     57.617529
PG08  -4145.992227  24762.276918  -8089.424249   -144.011703
PG09  10523.808170  12650.959555  20753.284038    -50.127994
PG10 -18276.691950  -3735.892607 -18852.978643    -54.797268
PG11  16910.319247 -12216.626822  16422.060747   -385.592074
PG12  -7693.957275 -24005.277656  -8761.357734   -428.751764
PG13  13153.576123 -22895.309115  -1611.065129    576.683106
PG14  19362.975659   7033.760156 -16833.084789    195.373201
PG15    112.244337 -24977.919686  -9158.852936     80.924491
PG16  -6298.332198  16159.973032  19671.242141   -448.948899
PG17  17225.031099  -4392.817310 -19336.022014    723.853002
PG18 -23734.491788  -5438.256380  10829.334045   -428.753982
PG19  18617.811919 -11620.558536 -14910.449929    376.293677
PG20   9350.010176 -12437.397440  21573.236894    410.078800
PG21  -2916.106196  15329.406563 -20831.345246    148.179735
PG22  16446.516954     46.274521 -20334.858706    115.028824
PG23 -19803.303832 -14758.382097 -10000.045667     73.343065
PG24  -2887.566767 -15702.517070 -21604.539257   -329.177205
PG25 -17442.217100 -19947.439163   3007.469617    469.570462
PG26 -13939.064371   7761.851298  21136.938848    226.717697
PG27 -12775.891760  22722.097488   3494.395212    -45.189015
PG28 -25741.710667   5709.019572   3181.976796    -14.939531
PG29  -9257.454206 -12997.033597  21169.185856   -609.618653
PG30  26492.774125     80.126859   3477.161687   -484.591272
PG31 -21491.172626  10214.664503  12032.401068   -223.847494
PG32 -17431.763188   8937.505587 -17658.274845   -563.379546
PJ02 -26021.346138  22780.394505  29211.065927     -4.586124
PJ03 -35660.984574  19826.871536  -6079.111331     -3.513828
PJ04 -19539.540510  29722.387330 -17527.622397     70.772694
PR01  -3280.859388 -24387.708932  -6714.216787     66.389267
PR02  -9224.568057 -11954.473981 -20543.025882    -22.402287
PR03 -10540.500766   7341.772888 -21986.680303     85.879277
PR04  -5973.701474  22035.210880 -11335.550482    204.248196
PR05   1684.060608  24842.812585   5473.506803    119.589913
PR07  10466.003128  -8330.098172  21764.098929     65.444981
PR08   5850.781036 -22188.221297  11233.414498    -72.668801
PR09  22298.622216  12468.873206   -401.252482    144.173153
PR11   6939.295259  -8573.014557 -22987.566509   -174.845181
PR12 -11682.503320 -15989.786893 -16058.297709     31.663547
PR13 -21535.592646 -13563.137894  -1736.247501    -39.565989
PR14 -19454.774289  -2283.471080  16342.922851     25.302242
PR15  -5754.424485   9452.416320  23005.154239     85.904455
PR16  11568.608553  15806.941619  16372.634112     19.028216
PR17 -23037.170610   9652.774709   5312.352862     20.186866
PR18 -17435.402377  14837.334223 -11189.849594    103.675625
PR19  -4778.568081  12946.424486 -21454.343155   -248.548198
PR20  15422.709206   2467.340893 -20167.730103   -100.641794
PR21  23052.347547  -9953.034173  -4382.345332    -40.690494
PR22  17127.931415 -14616.262805  12018.882768     85.764016
PR24 -16136.610735  -1873.452387  19694.008081    -25.744214
PR25  23428.655496  -8547.179092  -5286.240594     31.218562
PR26   5867.372822 -21949.667986  11591.016300    -22.756060
EOF
